OBJECT_NAME,OBJECT_ID,EPOCH,MEAN_MOTION,ECCENTRICITY,INCLINATION,RA_OF_ASC_NODE,ARG_OF_PERICENTER,MEAN_ANOMALY,EPHEMERIS_TYPE,CLASSIFICATION_TYPE,NORAD_CAT_ID,ELEMENT_SET_NO,REV_AT_EPOCH,BSTAR,MEAN_MOTION_DOT,MEAN_MOTION_DDOT
ONEWEB-0158,2021-025N,2026-06-24T03:16:46.352640,13.13472600,.00016204,87.8969,318.8337,100.2358,259.8954,0,U,48054,999,25454,-.25738083E-3,-.81E-6,0
ONEWEB-0157,2021-025P,2026-06-24T03:53:21.750720,13.13469957,.00021453,87.8968,318.8343,104.3793,255.7575,0,U,48055,999,25448,.12310121E-2,.462E-5,0
ONEWEB-0162,2021-025Q,2026-06-24T03:19:01.436448,13.13470891,.00019455,87.8962,318.8396,94.3578,265.7773,0,U,48056,999,25445,.1413402E-5,.13E-6,0
ONEWEB-0155,2021-025R,2026-06-24T03:28:58.418112,13.13456453,.00018619,87.8967,318.8345,100.8620,259.2718,0,U,48057,999,25459,.88174419E-2,.3233E-4,0
ONEWEB-0149,2021-025S,2026-06-24T02:10:58.346976,13.13469427,.00020206,87.8969,318.8489,93.1393,266.9968,0,U,48058,999,25439,.45211748E-3,.178E-5,0
ONEWEB-0148,2021-025T,2026-06-24T03:07:01.447104,13.13471311,.00023763,87.8960,318.8476,89.8086,270.3315,0,U,48059,999,25452,-.62912312E-3,-.217E-5,0
ONEWEB-0160,2021-025U,2026-06-24T03:31:23.555424,13.13472062,.00011478,87.8962,318.8403,83.2580,276.8680,0,U,48060,999,25447,.56792596E-3,.22E-5,0
ONEWEB-0163,2021-025V,2026-06-24T03:09:26.755488,13.13470801,.00020926,87.8968,318.8382,103.7169,256.4194,0,U,48061,999,25459,-.89113053E-3,-.313E-5,0
ONEWEB-0159,2021-025W,2026-06-24T02:57:15.604992,13.13471364,.00020273,87.8972,318.8339,103.9158,256.2197,0,U,48062,999,25451,-.7722281E-3,-.269E-5,0
ONEWEB-0164,2021-025X,2026-06-24T02:30:27.274176,13.13470320,.00017761,87.8969,318.8436,97.5655,262.5675,0,U,48063,999,25449,-.25617497E-3,-.81E-6,0
ONEWEB-0167,2021-025Y,2026-06-24T03:10:40.779552,13.13469313,.00019841,87.8961,318.8474,118.0303,242.1027,0,U,48064,999,25448,-.59150103E-3,-.203E-5,0
ONEWEB-0166,2021-025Z,2026-06-24T07:23:00.003552,13.13471233,.0001888,87.8972,318.7847,97.1148,263.0196,0,U,48065,999,25458,.93283694E-3,.353E-5,0
ONEWEB-0151,2021-025AA,2026-06-24T03:46:01.351776,13.13470319,.0001779,87.8964,318.8310,101.8119,258.3210,0,U,48066,999,25450,.92548086E-3,.351E-5,0
ONEWEB-0170,2021-025AB,2026-06-24T02:08:31.259616,13.13470287,.00014352,87.8964,318.8463,104.3659,255.7630,0,U,48067,999,25445,.64252769E-3,.247E-5,0
ONEWEB-0168,2021-025AC,2026-06-24T03:36:14.348448,13.13494472,.00024533,87.8973,318.8344,88.8367,271.3043,0,U,48068,999,25447,.12296098E-2,.462E-5,0
ONEWEB-0173,2021-025AD,2026-06-24T03:24:05.331168,13.13471158,.00020684,87.8962,318.8374,107.5053,252.6303,0,U,48069,999,25471,.77867031E-4,.41E-6,0
ONEWEB-0171,2021-025AE,2026-06-24T02:28:01.009344,13.13470604,.00017685,87.8960,318.8530,100.2532,259.8797,0,U,48070,999,25452,-.95306632E-4,-.22E-6,0
ONEWEB-0172,2021-025AF,2026-06-24T03:48:28.027008,13.13468098,.00018447,87.8967,318.8323,103.2455,256.8880,0,U,48071,999,25542,.82164799E-3,.313E-5,0
ONEWEB-0174,2021-025AG,2026-06-24T03:21:39.440448,13.13470684,.00020405,87.8959,318.8351,96.9056,263.2305,0,U,48072,999,25474,.4004069E-4,.27E-6,0
ONEWEB-0175,2021-025AH,2026-06-24T02:15:50.106816,13.13470707,.00016495,87.8970,318.8287,107.4273,252.7037,0,U,48073,999,25439,.20330907E-3,.87E-6,0
ONEWEB-0177,2021-025AJ,2026-06-24T02:32:53.309184,13.13468621,.00021093,87.8968,318.8448,98.9268,261.2099,0,U,48074,999,25458,-.69930559E-3,-.243E-5,0
ONEWEB-0178,2021-025AK,2026-06-24T02:59:54.647520,13.13468801,.00018629,87.8958,318.8528,106.7437,253.3897,0,U,48075,999,25463,-.88555582E-3,-.311E-5,0
ONEWEB-0108,2021-025AL,2026-06-24T03:50:54.311712,13.13470813,.00018197,87.8971,318.8257,90.8768,269.2569,0,U,48076,999,25456,.11927413E-2,.448E-5,0
ONEWEB-0169,2021-025AM,2026-06-24T02:47:31.026048,13.13470291,.00019739,87.8966,318.8414,96.5700,263.5654,0,U,48077,999,25321,-.69302964E-3,-.24E-5,0
ONEWEB-0176,2021-031A,2026-06-24T00:42:36.335808,13.14503802,.00019482,87.8970,288.3354,103.9360,256.1986,0,U,48210,999,24921,-.44090214E-3,-.151E-5,0
ONEWEB-0184,2021-031B,2026-06-24T07:22:13.655136,13.14503370,.00018634,87.8977,288.2815,125.7843,234.3460,0,U,48211,999,24922,.58457117E-3,.23E-5,0
ONEWEB-0179,2021-031C,2026-06-24T01:03:41.809824,14.25527749,.02190831,87.8992,285.3219,234.6156,123.4397,0,U,48212,999,25002,.56449234E-4,.189E-5,0
ONEWEB-0180,2021-031D,2026-06-24T07:26:49.078464,13.14504514,.00022745,87.8976,288.2769,109.0921,251.0456,0,U,48213,999,24915,.50104469E-3,.199E-5,0
ONEWEB-0218,2021-031E,2026-06-23T17:21:53.513856,13.14503259,.00021288,87.8977,288.3929,125.6603,234.4725,0,U,48214,999,24923,-.48058566E-3,-.165E-5,0
ONEWEB-0209,2021-031F,2026-06-24T00:24:20.300832,13.14501851,.00022241,87.8969,288.3510,101.7579,258.3800,0,U,48215,999,24927,-.28733691E-3,-.94E-6,0
