ONEWEB-0158             
1 48054U 21025N   26175.13664760 -.00000081  00000+0 -25738-3 0  9993
2 48054  87.8969 318.8337 0001620 100.2358 259.8954 13.13472600254540
ONEWEB-0157             
1 48055U 21025P   26175.16205730  .00000462  00000+0  12310-2 0  9997
2 48055  87.8968 318.8343 0002145 104.3793 255.7575 13.13469957254486
ONEWEB-0162             
1 48056U 21025Q   26175.13821107  .00000013  00000+0  14134-5 0  9998
2 48056  87.8962 318.8396 0001945  94.3578 265.7773 13.13470891254452
ONEWEB-0155             
1 48057U 21025R   26175.14512058  .00003233  00000+0  88174-2 0  9991
2 48057  87.8967 318.8345 0001861 100.8620 259.2718 13.13456453254590
ONEWEB-0149             
1 48058U 21025S   26175.09095309  .00000178  00000+0  45212-3 0  9993
2 48058  87.8969 318.8489 0002020  93.1393 266.9968 13.13469427254396
ONEWEB-0148             
1 48059U 21025T   26175.12987786 -.00000217  00000+0 -62912-3 0  9999
2 48059  87.8960 318.8476 0002376  89.8086 270.3315 13.13471311254524
ONEWEB-0160             
1 48060U 21025U   26175.14680041  .00000220  00000+0  56793-3 0  9999
2 48060  87.8962 318.8403 0001147  83.2580 276.8680 13.13472062254474
ONEWEB-0163             
1 48061U 21025V   26175.13155967 -.00000313  00000+0 -89113-3 0  9990
2 48061  87.8968 318.8382 0002092 103.7169 256.4194 13.13470801254594
ONEWEB-0159             
1 48062U 21025W   26175.12309728 -.00000269  00000+0 -77223-3 0  9995
2 48062  87.8972 318.8339 0002027 103.9158 256.2197 13.13471364254518
ONEWEB-0164             
1 48063U 21025X   26175.10448234 -.00000081  00000+0 -25617-3 0  9992
2 48063  87.8969 318.8436 0001776  97.5655 262.5675 13.13470320254492
ONEWEB-0167             
1 48064U 21025Y   26175.13241643 -.00000203  00000+0 -59150-3 0  9996
2 48064  87.8961 318.8474 0001984 118.0303 242.1027 13.13469313254481
ONEWEB-0166             
1 48065U 21025Z   26175.30763893  .00000353  00000+0  93284-3 0  9992
2 48065  87.8972 318.7847 0001888  97.1148 263.0196 13.13471233254588
ONEWEB-0151             
1 48066U 21025AA  26175.15696009  .00000351  00000+0  92548-3 0  9990
2 48066  87.8964 318.8310 0001779 101.8119 258.3210 13.13470319254506
ONEWEB-0170             
1 48067U 21025AB  26175.08925069  .00000247  00000+0  64253-3 0  9990
2 48067  87.8964 318.8463 0001435 104.3659 255.7630 13.13470287254457
ONEWEB-0168             
1 48068U 21025AC  26175.15016607  .00000462  00000+0  12296-2 0  9996
2 48068  87.8973 318.8344 0002453  88.8367 271.3043 13.13494472254475
ONEWEB-0173             
1 48069U 21025AD  26175.14172837  .00000041  00000+0  77867-4 0  9994
2 48069  87.8962 318.8374 0002068 107.5053 252.6303 13.13471158254714
ONEWEB-0171             
1 48070U 21025AE  26175.10278946 -.00000022  00000+0 -95307-4 0  9990
2 48070  87.8960 318.8530 0001768 100.2532 259.8797 13.13470604254526
ONEWEB-0172             
1 48071U 21025AF  26175.15865772  .00000313  00000+0  82165-3 0  9993
2 48071  87.8967 318.8323 0001844 103.2455 256.8880 13.13468098255420
ONEWEB-0174             
1 48072U 21025AG  26175.14003982  .00000027  00000+0  40041-4 0  9990
2 48072  87.8959 318.8351 0002040  96.9056 263.2305 13.13470684254749
ONEWEB-0175             
1 48073U 21025AH  26175.09432994  .00000087  00000+0  20331-3 0  9999
2 48073  87.8970 318.8287 0001649 107.4273 252.7037 13.13470707254396
ONEWEB-0177             
1 48074U 21025AJ  26175.10617256 -.00000243  00000+0 -69931-3 0  9993
2 48074  87.8968 318.8448 0002109  98.9268 261.2099 13.13468621254589
ONEWEB-0178             
1 48075U 21025AK  26175.12493805 -.00000311  00000+0 -88556-3 0  9998
2 48075  87.8958 318.8528 0001862 106.7437 253.3897 13.13468801254633
ONEWEB-0108             
1 48076U 21025AL  26175.16035083  .00000448  00000+0  11927-2 0  9999
2 48076  87.8971 318.8257 0001819  90.8768 269.2569 13.13470813254560
ONEWEB-0169             
1 48077U 21025AM  26175.11633132 -.00000240  00000+0 -69303-3 0  9998
2 48077  87.8966 318.8414 0001973  96.5700 263.5654 13.13470291253213
ONEWEB-0176             
1 48210U 21031A   26175.02958722 -.00000151  00000+0 -44090-3 0  9996
2 48210  87.8970 288.3354 0001948 103.9360 256.1986 13.14503802249215
ONEWEB-0184             
1 48211U 21031B   26175.30710249  .00000230  00000+0  58457-3 0  9996
2 48211  87.8977 288.2815 0001863 125.7843 234.3460 13.14503370249224
ONEWEB-0179             
1 48212U 21031C   26175.04423391  .00000189  00000+0  56449-4 0  9990
2 48212  87.8992 285.3219 0219083 234.6156 123.4397 14.25527749250026
ONEWEB-0180             
1 48213U 21031D   26175.31029026  .00000199  00000+0  50104-3 0  9990
2 48213  87.8976 288.2769 0002274 109.0921 251.0456 13.14504514249156
ONEWEB-0218             
1 48214U 21031E   26174.72353604 -.00000165  00000+0 -48059-3 0  9998
2 48214  87.8977 288.3929 0002128 125.6603 234.4725 13.14503259249234
ONEWEB-0209             
1 48215U 21031F   26175.01690163 -.00000094  00000+0 -28734-3 0  9995
2 48215  87.8969 288.3510 0002224 101.7579 258.3800 13.14501851249275
